[{"OBJECT_NAME":"COSMOS 2598 (RODNIK-S 23)","OBJECT_ID":"2025-273B","EPOCH":"2026-03-09T23:00:51.944256","MEAN_MOTION":12.42915673,"ECCENTRICITY":0.00110403,"INCLINATION":82.5002,"RA_OF_ASC_NODE":232.2095,"ARG_OF_PERICENTER":47.8874,"MEAN_ANOMALY":312.3142,"EPHEMERIS_TYPE":0,"CLASSIFICATION_TYPE":"U","NORAD_CAT_ID":66648,"ELEMENT_SET_NO":999,"REV_AT_EPOCH":1297,"BSTAR":0.00011619119,"MEAN_MOTION_DOT":2.6e-7,"MEAN_MOTION_DDOT":0},{"OBJECT_NAME":"DELTA 1 DEB","OBJECT_ID":"1973-086EG","EPOCH":"2026-03-06T07:44:49.100928","MEAN_MOTION":12.11268328,"ECCENTRICITY":0.01802292,"INCLINATION":102.2931,"RA_OF_ASC_NODE":202.4962,"ARG_OF_PERICENTER":308.2976,"MEAN_ANOMALY":109.0467,"EPHEMERIS_TYPE":0,"CLASSIFICATION_TYPE":"U","NORAD_CAT_ID":7168,"ELEMENT_SET_NO":999,"REV_AT_EPOCH":52602,"BSTAR":0.0052681455,"MEAN_MOTION_DOT":4.7e-6,"MEAN_MOTION_DDOT":0}]
